ONEWEB-0331             
1 49198U 21083N   25179.56341973  .00000048  00000+0  88252-4 0  9997
2 49198  87.9126  45.7166 0001553  71.7220 288.4081 13.18788642183403
ONEWEB-0333             
1 49199U 21083P   25179.59995080 -.00000087  00000+0 -27259-3 0  9999
2 49199  87.8963  30.5301 0001833  87.3597 272.7742 13.13469833184499
ONEWEB-0334             
1 49200U 21083Q   25179.50983511  .00000023  00000+0  25338-4 0  9994
2 49200  87.9259 344.9168 0002687 109.0665 251.0759 13.20771152190101
ONEWEB-0335             
1 49201U 21083R   25179.59488615  .00000006  00000+0 -19521-4 0  9998
2 49201  87.8965  30.5191 0001628  80.0372 280.0941 13.13470896184501
ONEWEB-0336             
1 49202U 21083S   25179.56609421  .00000205  00000+0  52759-3 0  9995
2 49202  87.8961  30.5179 0001768  89.5851 270.5481 13.13470514184493
ONEWEB-0337             
1 49203U 21083T   25179.57611776  .00000396  00000+0  10483-2 0  9991
2 49203  87.8963  30.5156 0001795  80.3712 279.7619 13.13469790184494
ONEWEB-0338             
1 49204U 21083U   25179.48458621 -.00000028  00000+0 -10174-3 0  9992
2 49204  87.9268 344.9122 0002104  99.3074 260.8298 13.20772219190127
ONEWEB-0339             
1 49205U 21083V   25179.58471667  .00000191  00000+0  48693-3 0  9995
2 49205  87.8959  30.5011 0001922  83.5476 276.5872 13.13469627184478
